1 37673U 11024A   13326.60847987  .00000923  00000-0  15365-3 0  9995
2 37673 098.0126 331.7837 0001314 107.1492 037.3602 14.72360693131837